{
  "norad_id": 62195,
  "name": "STARLINK-32672",
  "history": [
    {
      "epoch": "2026-03-28T14:15:48.453120Z",
      "apogee_km": 483.48207407125847,
      "perigee_km": 482.5667951358819,
      "latitude_deg": -2.002884939820779e-05,
      "longitude_deg": 123.90067538180821,
      "height_km": 482.65322810581137,
      "semi_major_axis_km": 6861.161434603569,
      "eccentricity": 6.67e-05,
      "inclination_deg": 43.0041,
      "raan_deg": 163.8651,
      "arg_perigee_deg": 288.8303,
      "mean_anomaly_deg": 71.2476,
      "mean_motion_rev_day": 15.27588236
    },
    {
      "epoch": "2026-03-28T22:06:35.925696Z",
      "apogee_km": 483.9318629806876,
      "perigee_km": 482.0944469691858,
      "latitude_deg": 3.514795669008015e-05,
      "longitude_deg": 4.034586563819926,
      "height_km": 482.42467554057424,
      "semi_major_axis_km": 6861.150154974936,
      "eccentricity": 0.0001339,
      "inclination_deg": 42.9984,
      "raan_deg": 162.019,
      "arg_perigee_deg": 66.7676,
      "mean_anomaly_deg": 293.3317,
      "mean_motion_rev_day": 15.27592003
    },
    {
      "epoch": "2026-03-29T21:38:56.930784Z",
      "apogee_km": 484.24754101774215,
      "perigee_km": 481.85298666266226,
      "latitude_deg": 3.832334170679705e-05,
      "longitude_deg": 4.441149893151043,
      "height_km": 482.36875452852826,
      "semi_major_axis_km": 6861.187263840202,
      "eccentricity": 0.0001745,
      "inclination_deg": 43.0003,
      "raan_deg": 156.4798,
      "arg_perigee_deg": 67.655,
      "mean_anomaly_deg": 292.4487,
      "mean_motion_rev_day": 15.2757961
    },
    {
      "epoch": "2026-03-30T05:29:43.276704Z",
      "apogee_km": 483.35714798359913,
      "perigee_km": 482.6182048559476,
      "latitude_deg": -1.8395205574341561e-06,
      "longitude_deg": -115.41933290292232,
      "height_km": 482.58871495964877,
      "semi_major_axis_km": 6861.124676419773,
      "eccentricity": 5.385e-05,
      "inclination_deg": 43.0027,
      "raan_deg": 154.6347,
      "arg_perigee_deg": 61.8705,
      "mean_anomaly_deg": 298.2201,
      "mean_motion_rev_day": 15.27600512
    }
  ]
}